[
    {
        "Altitude(m)": 607886.665236254,
        "Argument of Periapsis(deg)": 0.0,
        "Eccentricity": 0.0,
        "Inclination(deg)": 60.0,
        "Latitude(deg)": 40.99837265450743,
        "Longitude(deg)": -95.02703557279676,
        "Mean Anomaly(deg)": -310.9091,
        "RAAN(deg)": 335.0,
        "Satellite Name": "Test1 1477",
        "Satellite Number": 1477,
        "Semi-Major Axis(m)": 6980739.136638005,
        "Time(s)": 0
    },
    {
        "Altitude(m)": 607987.579278968,
        "Argument of Periapsis(deg)": 0.00010418945913296404,
        "Eccentricity": 0.0,
        "Inclination(deg)": 60.0,
        "Latitude(deg)": 41.463462894561324,
        "Longitude(deg)": -94.52280849840804,
        "Mean Anomaly(deg)": -310.2889938545382,
        "RAAN(deg)": 334.99957995086027,
        "Satellite Name": "Test1 1477",
        "Satellite Number": 1477,
        "Semi-Major Axis(m)": 6980739.136638005,
        "Time(s)": 10
    }
]